"title","totalScore","reviewsCount","street","city","state","countryCode","website","phone","categoryName","url"
"Alexia Mouzouridou",,"0","Walter Gropius 26A","Limassol",,"CY",,,"Gym","https://www.google.com/maps/search/?api=1&query=Alexia%20Mouzouridou&query_place_id=ChIJu0H8PFAz5xQRTlYv709Bgk8"
"Live dance","5","1","Eptanisou 14a","Limassol",,"CY","http://live-dance-studio.club/","+357 99 171757","Gym","https://www.google.com/maps/search/?api=1&query=Live%20dance&query_place_id=ChIJ47A-y5Uz5xQRxZh9uv1RlwE"
"Central Balance","5","4","Stygos 29","Limassol",,"CY","http://www.centralbalance.net/","+357 25 720807","Rehabilitation center","https://www.google.com/maps/search/?api=1&query=Central%20Balance&query_place_id=ChIJv637IQAz5xQRowa7a0v8Hac"
"Flips & Hops","5","6","Georgiou Dimosthenous 11 Agios Georgios","Chavouzas",,"CY","http://www.flipsandhops.com/","+357 99 310576","Gym","https://www.google.com/maps/search/?api=1&query=Flips%20%26%20Hops&query_place_id=ChIJj_yIYMMz5xQRBK9imyuwXtM"
"Studio Figura Agia Zoni","5","1","Kirzis Center, Emannouli Roidi","Limassol",,"CY",,"+357 25 567560","Fitness center","https://www.google.com/maps/search/?api=1&query=Studio%20Figura%20Agia%20Zoni&query_place_id=ChIJs44WMDwz5xQRbprfgAZfdQs"
"Ballet School & Pilates Studio Monika Perikleous","5","18","Kosti Palama 57","Limassol",,"CY","https://www.monicadancepilatesstudio.com/","+357 99 785748","Pilates studio","https://www.google.com/maps/search/?api=1&query=Ballet%20School%20%26%20Pilates%20Studio%20Monika%20Perikleous&query_place_id=ChIJBXuRW18z5xQRfJfVnA2LtM8"
"Jimmy's Boxing Club","5","2","P. Anagnostopoulou 4153","Kato Polemidia",,"CY",,,"Boxing gym","https://www.google.com/maps/search/?api=1&query=Jimmy's%20Boxing%20Club&query_place_id=ChIJkV24WkMz5xQRDpWewk5bH1I"
"Sanctum at Icon","5","4","Georgiou 'A 89","Germasogeia",,"CY","https://www.sanctum.life/sanctum-at-the-icon/","+357 25 249966","Gym","https://www.google.com/maps/search/?api=1&query=Sanctum%20at%20Icon&query_place_id=ChIJu85zdafL4BQRCHrNazvznLI"
"Buckle Up by Andreas Petsides","5","4","M2PC+XF3, Λεωφόρος Νίκου και Δέσποινας Παττίχη","Limassol",,"CY",,,"Personal trainer","https://www.google.com/maps/search/?api=1&query=Buckle%20Up%20by%20Andreas%20Petsides&query_place_id=ChIJwSJuCgwz5xQRGBhMcNVQogY"
"MegaSport Mini Football Club","4.5","2","178, Fr. Roosevelt Ave, Limassol, Cyprus","Limassol",,"CY",,"+357 25 575655","Gym","https://www.google.com/maps/search/?api=1&query=MegaSport%20Mini%20Football%20Club&query_place_id=ChIJ50hXPEAy5xQR-B7JOIT1l48"
"Inner Power Center Martial Arts","5","2","M2QJ+M9W, Καλλικράτους","Limassol",,"CY",,,"Gym","https://www.google.com/maps/search/?api=1&query=Inner%20Power%20Center%20Martial%20Arts&query_place_id=ChIJqxOgXZYz5xQR6fq4VTSXmNI"
"Kangoo Jumps Maria limassol","5","4","Omonoias 54","Limassol",,"CY",,"+357 99 867079","Fitness center","https://www.google.com/maps/search/?api=1&query=Kangoo%20Jumps%20Maria%20limassol&query_place_id=ChIJXcYofAwz5xQRJBGxieIwmiE"
"Healthy Corner","1","3","MXVX+6RW Κάτω Πολεμίδια, Παρ. Παναγίας Ευαγγελιστριας","Kato Polemidia",,"CY",,,"Gym","https://www.google.com/maps/search/?api=1&query=Healthy%20Corner&query_place_id=ChIJr-7LPtAz5xQRkjQ_4Y-buGU"
"Vinyasa Yoga Studio Limassol","5","17","Athina Court, Ypsilantou 6","Limassol",,"CY","http://www.vinyasayogacyprus.com/","+357 25 106848","Yoga studio","https://www.google.com/maps/search/?api=1&query=Vinyasa%20Yoga%20Studio%20Limassol&query_place_id=ChIJNYF_B0Yz5xQR3nK863-_sZs"
"Spiral Studio","5","1","15, Stratigou Makrigianni","Limassol",,"CY","http://www.spiralstudio.eu/","+357 99 467087","Pilates studio","https://www.google.com/maps/search/?api=1&query=Spiral%20Studio&query_place_id=ChIJCTxbywAz5xQR11XhSu2RYwU"
"Danceland Studio","5","54","Corner Grigori Afxentiou & 1st of April","Mesa Geitonia",,"CY","http://dancelandcyprus.com/","+357 96 550690","Dance school","https://www.google.com/maps/search/?api=1&query=Danceland%20Studio&query_place_id=ChIJVR3xhxIz5xQR1_g1AXH1bAU"
"Calisthenics park","5","2","M3WG+3CQ","Germasogeia",,"CY",,,"Gym","https://www.google.com/maps/search/?api=1&query=Calisthenics%20park&query_place_id=ChIJRxS0ZQAz5xQRs-tyCGJ0Z9c"
"PIERO JUDO ACADEMY","5","122","Eustathiou Paraskeva 18","Limassol",,"CY",,"+357 99 580158","Judo school","https://www.google.com/maps/search/?api=1&query=PIERO%20JUDO%20ACADEMY&query_place_id=ChIJa-JzUfwz5xQRLji-kF1I6z4"
"Gracie Barra Cyprus","5","11","Michael Zavou 25","Agios Athanasios",,"CY","http://www.graciebarracyprus.com/","+357 99 903822","Martial arts school","https://www.google.com/maps/search/?api=1&query=Gracie%20Barra%20Cyprus&query_place_id=ChIJbx8g26Y05xQRTz_j8BiZ8rE"
"Elenion Health and Beauty Center","4.9","15","Myrtiotissis 10","Germasogeia",,"CY",,"+357 25 321038","Fitness center","https://www.google.com/maps/search/?api=1&query=Elenion%20Health%20and%20Beauty%20Center&query_place_id=ChIJ78Nrq1bL4BQR6Y58IrDOWwE"
"The Inner Flame Yoga/Pilates/Thai massage","5","8","Steliou Kiriakidi","Limassol",,"CY","https://www.theinnerflame.net/","+357 99 997851","Yoga studio","https://www.google.com/maps/search/?api=1&query=The%20Inner%20Flame%20Yoga%2FPilates%2FThai%20massage&query_place_id=ChIJQzC2TKEz5xQR7jsyYNcTB5Q"
"Cosmos Gymnasium by Lg","5","5","P34P+P83, Spyrou Kyprianou","Germasogeia",,"CY",,"+357 97 990102","Gym","https://www.google.com/maps/search/?api=1&query=Cosmos%20Gymnasium%20by%20Lg&query_place_id=ChIJUw1aewDL4BQRMd0HsKjUHy0"
"The Bodyflow Studio Sea | Pole dance & Aerial","4.9","29","Eyelnthontos 4","Limassol",,"CY","https://www.thebodyflowstudio.com/","+357 96 893776","Dance school","https://www.google.com/maps/search/?api=1&query=The%20Bodyflow%20Studio%20Sea%20%7C%20Pole%20dance%20%26%20Aerial&query_place_id=ChIJ-09Oincz5xQRPGhW8roL5DM"
"Taeker Kick","5","17","Stavraetou Machaira 22","Agios Athanasios",,"CY",,"+357 96 776055","Gym","https://www.google.com/maps/search/?api=1&query=Taeker%20Kick&query_place_id=ChIJ3TPcSGIz5xQRupCk15iI6vg"
"Open air Fitness","5","2","M3RG+475, Kean","Germasogeia",,"CY",,,"Fitness center","https://www.google.com/maps/search/?api=1&query=Open%20air%20Fitness&query_place_id=ChIJn1RuUtQz5xQRf3zZgJkxxIc"
"Nak Muay Riot","5","5","M2WH+6HG, Pylou","Limassol",,"CY",,,"Muay Thai boxing gym","https://www.google.com/maps/search/?api=1&query=Nak%20Muay%20Riot&query_place_id=ChIJy4YRYAYz5xQRqhkRqWQD0Wk"
"Pull up bar","5","1","M2JH+M4J, Iouliou Vern","Limassol",,"CY",,,"Gym","https://www.google.com/maps/search/?api=1&query=Pull%20up%20bar&query_place_id=ChIJUc90LgAz5xQRYtgeDL4e7ik"
"Insparring Boxing - Performance - Rehabilitation","5","1","Zenonos 48/1","Limassol",,"CY",,"+357 99 153251","Gym","https://www.google.com/maps/search/?api=1&query=Insparring%20Boxing%20-%20Performance%20-%20Rehabilitation&query_place_id=ChIJ2fuDphoz5xQRD-U9PGACwDs"
"House of Jiu Jitsu","5","33","Arch. Makarios III Avenue 103","Avenue",,"CY","https://www.houseofjj.online/","+357 99 597884","Gym","https://www.google.com/maps/search/?api=1&query=House%20of%20Jiu%20Jitsu&query_place_id=ChIJ__978qgz5xQRHpb6si6TdVY"
"Limassol Fitness","5","11","Eleftherias 109-3042","Limassol",,"CY","http://limassol-fitness.com/","+357 95 144819","Personal trainer","https://www.google.com/maps/search/?api=1&query=Limassol%20Fitness&query_place_id=ChIJiQul3m8z5xQRt9wLgFJWq0w"
"TrainMe fitness studio","5","3","Kritis 14","Limassol",,"CY",,"+357 99 661586","Gymnastics club","https://www.google.com/maps/search/?api=1&query=TrainMe%20fitness%20studio&query_place_id=ChIJs0z4s-cz5xQRqMCbqru9QjQ"
"AA PILATES & FITNESS STUDIO LTD","5","1","Miltonos","Limassol",,"CY","https://aafitnessstudio.com/","+357 99 925385","Fitness center","https://www.google.com/maps/search/?api=1&query=AA%20PILATES%20%26%20FITNESS%20STUDIO%20LTD&query_place_id=ChIJqUKqa1wz5xQRdVGLNgG5jCw"
"Russian Boxing School","5","8","M2FQ+Q7M 129, Eleftherias","Limassol",,"CY",,"+357 99 011149","Gym","https://www.google.com/maps/search/?api=1&query=Russian%20Boxing%20School&query_place_id=ChIJwdkhQOIz5xQRNQP4XT9qQCc"
"Soul Vibe Space","4.7","12","Agias Zonis 50","Limassol",,"CY","https://soulvibespace.simplybook.it/","+357 95 642888","Yoga studio","https://www.google.com/maps/search/?api=1&query=Soul%20Vibe%20Space&query_place_id=ChIJ5XeWpA4z5xQR-yGiQUsw_cM"
"2 Sisters Studio","5","3","Ifigeneias 5","Kato Polemidia",,"CY",,"+357 70 006636","Gym","https://www.google.com/maps/search/?api=1&query=2%20Sisters%20Studio&query_place_id=ChIJ121amH0x5xQRm_bVOpeQp_U"
"B.P",,"0","M2Q2+CH5, 10th Rd","Kato Polemidia",,"CY",,,"Pilates studio","https://www.google.com/maps/search/?api=1&query=B.P&query_place_id=ChIJHenqeQAz5xQRrdqi4QJnUeg"
"Limassol Crew Academy | Muay Thai - Krav Maga","5","3","Vasileos Pavlou 44","Limassol",,"CY",,"+357 70 070018","Muay Thai boxing gym","https://www.google.com/maps/search/?api=1&query=Limassol%20Crew%20Academy%20%7C%20Muay%20Thai%20-%20Krav%20Maga&query_place_id=ChIJXwWegXYz5xQRVEnYB-CZo6o"
"Endless Flow","5","10","Amfissis 6","Limassol",,"CY",,,"Pilates studio","https://www.google.com/maps/search/?api=1&query=Endless%20Flow&query_place_id=ChIJvTDfcy8z5xQRPkm1KkE9OqM"
"Nicos Solomonides Indoor Arena (AEL)","4.5","19","Μόρφου 9A","Limassol",,"CY","http://actioninsports.com/",,"Gym","https://www.google.com/maps/search/?api=1&query=Nicos%20Solomonides%20Indoor%20Arena%20(AEL)&query_place_id=ChIJVxNtFFEy5xQRqajVcmxdSKU"
"no75space","5","27","Thesalonikis 75-3025","Limassol",,"CY","http://no75space.com/","+357 99 000055","Pilates studio","https://www.google.com/maps/search/?api=1&query=no75space&query_place_id=ChIJhQdRPAkz5xQRG7NNJAG20gk"
"Kakouras Personal Training Gym","5","2","Gregori Afxentiou 50","Limassol",,"CY",,"+357 99 141301","Personal trainer","https://www.google.com/maps/search/?api=1&query=Kakouras%20Personal%20Training%20Gym&query_place_id=ChIJFbUqZqsz5xQRghZ56C8VYVs"
"Limassol",,"0","M2HR+FG3","Limassol",,"CY",,,"Gym","https://www.google.com/maps/search/?api=1&query=Limassol&query_place_id=ChIJWUWwCwAz5xQRYsygrF_JeJg"
"Checkmat Limassol","5","22","Pafou 74","Limassol",,"CY","https://checkmat.cy/","+357 97 442244","Martial arts school","https://www.google.com/maps/search/?api=1&query=Checkmat%20Limassol&query_place_id=ChIJixAvDNMz5xQRva-x6tnAVts"
"Louiza Louka - Nutrition and Pilates Center","5","19","Πιπίνου 11","Mesa Geitonia",,"CY",,"+357 99 514982","Pilates studio","https://www.google.com/maps/search/?api=1&query=Louiza%20Louka%20-%20Nutrition%20and%20Pilates%20Center&query_place_id=ChIJRxDMeQAz5xQRyVWx_RsTmp8"
"Bodybuilding Club","3.6","19","Georgiou Griva Digeni 90","Limassol",,"CY","http://www.bbclub.com.cy/","+357 25 102166","Vitamin & supplements store","https://www.google.com/maps/search/?api=1&query=Bodybuilding%20Club&query_place_id=ChIJm7f93UQz5xQRU281IF-MvDQ"
"Polis Boxing Club est.1994 | Limassol Boxing Club","4.3","7","Agias Zonis 5","Limassol",,"CY",,"+357 99 436622","Boxing club","https://www.google.com/maps/search/?api=1&query=Polis%20Boxing%20Club%20est.1994%20%7C%20Limassol%20Boxing%20Club&query_place_id=ChIJTWUKkw8z5xQRuKnAzIwQs_I"
"Hootan fitness","5","34","Evripidou 1","street",,"CY","https://hootanfitness.com/","+357 96 444551","Physical fitness program","https://www.google.com/maps/search/?api=1&query=Hootan%20fitness&query_place_id=ChIJL00NJWEz5xQRHkGs3py6HxY"
"Vikentia Gymnastics & Swimming Center","4.6","67","Kokkinokampou","Kato Polemidia",,"CY","http://www.vikentiagym.com/","+357 25 391958","Gymnastics club","https://www.google.com/maps/search/?api=1&query=Vikentia%20Gymnastics%20%26%20Swimming%20Center&query_place_id=ChIJ-2MY1ygy5xQRssrkMz-pPxs"
"8to1Fitness","5","2","Steliou Kiriakidi 11","Limassol",,"CY",,"+357 99 307278","Gym","https://www.google.com/maps/search/?api=1&query=8to1Fitness&query_place_id=ChIJmZulzdkz5xQRCVkfwUnlB_0"
"Workshop By Evripidou","4.8","6","Steliou Kiriakidi 41","Limassol",,"CY",,"+357 25 254373","Gym","https://www.google.com/maps/search/?api=1&query=Workshop%20By%20Evripidou&query_place_id=ChIJEQ9oi5cz5xQRWlg4TT9TBhE"
"Taekwondo Power Center","5","4","P24G+4H7","Limassol",,"CY","https://m.facebook.com/profile.php?id=100043523961703","+357 99 578741","Gym","https://www.google.com/maps/search/?api=1&query=Taekwondo%20Power%20Center&query_place_id=ChIJXUef8Xgz5xQRviCpfGz_qrc"
"Marina Durunda Gymnastics Academy",,"0","P25V+9P2, Katinas Paxinou","Limassol",,"CY","https://instagram.com/marinadurundaga?igshid=YmMyMTA2M2Y=","+357 99 988775","Gymnastics center","https://www.google.com/maps/search/?api=1&query=Marina%20Durunda%20Gymnastics%20Academy&query_place_id=ChIJZeZi29Iz5xQRTVUZOvZfzuY"
"LCC Limassol Climbing Club","4.7","62","Lamprou Porfira 2A","Limassol",,"CY","https://limassolclimbing.com/home","+357 99 722170","Rock climbing gym","https://www.google.com/maps/search/?api=1&query=LCC%20Limassol%20Climbing%20Club&query_place_id=ChIJdzEilkEz5xQRVjIlDU3UsQw"
"MHFITNESSINN","5","1","Neokli Anastasiadi 25","Limassol",,"CY","https://mhfitnessinn.com/","+357 97 900304","Fitness center","https://www.google.com/maps/search/?api=1&query=MHFITNESSINN&query_place_id=ChIJJV0N1pIz5xQRB1KozfVE1HA"
"MMA school The cage","4.5","23","Jean Sibelius και, Γεωργίου Παυλίδη 12","Limassol",,"CY","http://www.mmathecage.com/","+357 99 817412","Gym","https://www.google.com/maps/search/?api=1&query=MMA%20school%20The%20cage&query_place_id=ChIJU6W-t2wz5xQRFKReek9_COE"
"RnB Fitness Studio","4.9","9","Panayias Evaggelistrias 9-4156","Kato Polemidia",,"CY",,"+357 99 865117","Fitness center","https://www.google.com/maps/search/?api=1&query=RnB%20Fitness%20Studio&query_place_id=ChIJP91M15Iz5xQR2gw3eqP8F7c"
"Gym","4.3","3","M3H2+6M8, Molos","Limassol",,"CY",,,"Gym","https://www.google.com/maps/search/?api=1&query=Gym&query_place_id=ChIJv2695Rkz5xQRIALVZlhRXjY"
"Eftychia gym","4.8","4","Aiolou 12","Limassol",,"CY",,"+357 25 378579","Gym","https://www.google.com/maps/search/?api=1&query=Eftychia%20gym&query_place_id=ChIJwYnBH1oz5xQRwHBb9yqlv0o"
"Self performance","5","2","M2M8+6Q5, Agias Sofias","Limassol",,"CY",,"+357 25 253830","Gym","https://www.google.com/maps/search/?api=1&query=Self%20performance&query_place_id=ChIJzafUjqYz5xQRJe6S_C5Pmlw"
"Habits Fitness Boutique","5","5","Souliou 38","Limassol",,"CY",,"+357 99 767997","Gym","https://www.google.com/maps/search/?api=1&query=Habits%20Fitness%20Boutique&query_place_id=ChIJWdlmALcz5xQR-aHqMSANPOU"
"CATMAN OLYMPIC BOXING ACADEMY (C7M)","4.6","11","Riga Fereou 2","Limassol",,"CY",,"+357 99 408750","Gym","https://www.google.com/maps/search/?api=1&query=CATMAN%20OLYMPIC%20BOXING%20ACADEMY%20(C7M)&query_place_id=ChIJJWh8BJcz5xQRc5wRz0oEMn4"
"GYMANIA PERSONAL TRAINER","5","103","Ierou Lochou","Limassol",,"CY","http://www.gymaniafitnessclub.com/","+357 99 786469","Personal trainer","https://www.google.com/maps/search/?api=1&query=GYMANIA%20PERSONAL%20TRAINER&query_place_id=ChIJ6R87Imwz5xQRPe5Dq5hmkRs"
"Target Boxing Club","5","21","Eleftherias 129","Limassol",,"CY",,"+357 99 662217","Boxing gym","https://www.google.com/maps/search/?api=1&query=Target%20Boxing%20Club&query_place_id=ChIJZRV_f90z5xQRkOW3K52wt04"
"MindFit Gym Studio","5","7","Petrou Tsirou 22A","Limassol",,"CY",,"+357 99 495752","Fitness center","https://www.google.com/maps/search/?api=1&query=MindFit%20Gym%20Studio&query_place_id=ChIJe9konsIz5xQRBYqEW3KfBUo"
"24/7 Fitness Center","4.6","9","Melinas Merkouri 97","Kato Polemidia",,"CY","https://www.vipsupplementstores.com/24-7-gym-limassol/",,"Gym","https://www.google.com/maps/search/?api=1&query=24%2F7%20Fitness%20Center&query_place_id=ChIJeXTzlBkz5xQRWFPymdniDKE"
"KPK Performance & Rehabilitation Center","5","16","Spyrou Kyprianou Ave 124","Limassol",,"CY",,"+357 99 465681","Gym","https://www.google.com/maps/search/?api=1&query=KPK%20Performance%20%26%20Rehabilitation%20Center&query_place_id=ChIJW6AR6X4z5xQRu19sVypguH8"
"Lumpinee Gym - Muay Thai - Muay Boran - Personal Training - Fighting Club - Limassol - Cyprus","5","22","Akarnanias","Limassol",,"CY","https://lumpineegymlimassol.wixsite.com/lumpineegym","+357 99 696035","Martial arts school","https://www.google.com/maps/search/?api=1&query=Lumpinee%20Gym%20-%20Muay%20Thai%20-%20Muay%20Boran%20-%20Personal%20Training%20-%20Fighting%20Club%20-%20Limassol%20-%20Cyprus&query_place_id=ChIJd0Cm2qo05xQRuB-BclzO9Oo"
"Peak Condition Cyprus","5","43","Vasileos Konstantinou 152-1st Floor","Limassol",,"CY","https://www.peakconditioncy.com/","+357 97 741389","Personal trainer","https://www.google.com/maps/search/?api=1&query=Peak%20Condition%20Cyprus&query_place_id=ChIJR2uIlZcz5xQR08MAT66l0Uw"
"Body Advance Personal Training Studio","4.9","22","Akapnitis Court, 2nd Floor, Arch. Makarios III Avenue 161","Limassol",,"CY","http://www.bodyadvance.net/","+357 99 239777","Gym","https://www.google.com/maps/search/?api=1&query=Body%20Advance%20Personal%20Training%20Studio&query_place_id=ChIJUbAzGAwz5xQR8I32Pf50sYI"
"Christophe Gym and Swimming","4.6","33",,"Mesa Geitonia",,"CY",,"+357 25 722998","Gym","https://www.google.com/maps/search/?api=1&query=Christophe%20Gym%20and%20Swimming&query_place_id=ChIJ7ZACPN4z5xQRXJxwxBBYVkY"
"Studio IV 360° Pilates & Beyond","4","14","Nikodimou Milona 7","Limassol",,"CY","https://instagram.com/studio_iv_pilates?igshid=YmMyMTA2M2Y=","+357 99 674707","Pilates studio","https://www.google.com/maps/search/?api=1&query=Studio%20IV%20360%C2%B0%20Pilates%20%26%20Beyond&query_place_id=ChIJNentIT8z5xQR1ihbEIoBwIo"
"Fight & Fitness Co.","5","132","Madaris 14","Limassol",,"CY","http://www.fightandfitness.eu/","+357 95 107674","Martial arts club","https://www.google.com/maps/search/?api=1&query=Fight%20%26%20Fitness%20Co.&query_place_id=ChIJu_1vDGwz5xQRGMKCrsnfacM"
"All Powers Gym Cyprus","5","19","Fidippidou 22","Kato Polemidia",,"CY","http://www.allpowersgymcy.com/","+357 99 032725","Sports club","https://www.google.com/maps/search/?api=1&query=All%20Powers%20Gym%20Cyprus&query_place_id=ChIJwwIivIAx5xQR_0uoJMzqM74"
"Contrology Studio","4.8","12","Arch. Makarios III Avenue 59","Limassol",,"CY","https://linktr.ee/Contrologystudio","+357 99 282127","Fitness center","https://www.google.com/maps/search/?api=1&query=Contrology%20Studio&query_place_id=ChIJZ87BUGIz5xQRtjKoQNEX2pk"
"UN1T","4.8","32","Georgiou 'A 45","Limassol",,"CY","https://un1t.com/un1t-limassol/","+357 96 727088","Gym","https://www.google.com/maps/search/?api=1&query=UN1T&query_place_id=ChIJrd43SLHL4BQR_nYyapEjW00"
"L.E. Gym","5","2","Steliou Kiriakidi 27","Limassol",,"CY",,"+357 25 254373","Gym","https://www.google.com/maps/search/?api=1&query=L.E.%20Gym&query_place_id=ChIJs7tRcpcz5xQRJgT5EW4elBw"
"Pilates Space","4.6","19","Kolonakiou 58","Agios Athanasios",,"CY","http://facebook.com/pilateslimassol","+357 99 144626","Pilates studio","https://www.google.com/maps/search/?api=1&query=Pilates%20Space&query_place_id=ChIJo7ngKFQz5xQRDRCTca5XM_M"
"City Box Gym","4.3","3","Augoustas Theodoras 9","Limassol",,"CY",,"+357 99 516506","Gym","https://www.google.com/maps/search/?api=1&query=City%20Box%20Gym&query_place_id=ChIJfwnksmkz5xQRuxdpMiKEVQo"
"Gym Spot","4.6","5","M3M5+HR8, 28 October Ave","Limassol",,"CY",,,"Gym","https://www.google.com/maps/search/?api=1&query=Gym%20Spot&query_place_id=ChIJ21Dbz0Mz5xQRxobPG631SvU"
"Rebellion Gym","5","23","Nikola Skoufa 39","Limassol",,"CY","http://rebelliongym.com/","+357 99 548081","Muay Thai boxing gym","https://www.google.com/maps/search/?api=1&query=Rebellion%20Gym&query_place_id=ChIJhxgbf0gz5xQRVHaLNMrGBTo"
"Kinetic Fitness Studio","5","54","Aygerinou","Limassol",,"CY",,,"Fitness center","https://www.google.com/maps/search/?api=1&query=Kinetic%20Fitness%20Studio&query_place_id=ChIJ52R3SW0z5xQRJtjclady3go"
"FITNESS Lab","5","16","M2XC+WP6","Limassol",,"CY",,"+357 99 335631","Fitness center","https://www.google.com/maps/search/?api=1&query=FITNESS%20Lab&query_place_id=ChIJ8y0hA20z5xQRWj7Zre8Zjjk"
"Biofitness club","4.7","67","Agiou Athanasiou Avenue 29","Agios Athanasios",,"CY","http://www.biozeusfitness.com/","+357 25 101757","Gym","https://www.google.com/maps/search/?api=1&query=Biofitness%20club&query_place_id=ChIJy5bYiAMz5xQRwOWSIZHlFA4"
"IP FITNESS CLUB LIMASSOL","5","3","M2MF+3F3, Ioustinianou","Limassol",,"CY",,,"Fitness center","https://www.google.com/maps/search/?api=1&query=IP%20FITNESS%20CLUB%20LIMASSOL&query_place_id=ChIJv5l7LgAz5xQRPplJLDsLBFQ"
"Dainas Planet Fitness","4.9","14","Ekalis 16","Limassol",,"CY",,"+357 96 841700","Gym","https://www.google.com/maps/search/?api=1&query=Dainas%20Planet%20Fitness&query_place_id=ChIJU7t1aPsz5xQRMmZsIsBz0vw"
"The Pilates Studio","4","4","Thesalonikis 21","Limassol",,"CY","https://www.facebook.com/profile.php?id=100054593192736","+357 25 828877","Pilates studio","https://www.google.com/maps/search/?api=1&query=The%20Pilates%20Studio&query_place_id=ChIJmxKJ5Zkz5xQRH3b66Q-j3mI"
"Kinetic Pilates Studio","5","44","Archiepiskopou Makariou C' Avenue 71","Limassol",,"CY","https://instagram.com/kineticpilates_studio?igshid=NTc4MTIwNjQ2YQ==","+357 99 594937","Pilates studio","https://www.google.com/maps/search/?api=1&query=Kinetic%20Pilates%20Studio&query_place_id=ChIJ-QxSnvgz5xQRUKpC917cOj8"
"Bigapplegym","5","39","Λεωφ. Σπύρου Κυπριανού, Κάτω Πολεμίδια 17","Limassol",,"CY","https://www.instagram.com/marinapplegym/","+357 99 879041","Gymnastics center","https://www.google.com/maps/search/?api=1&query=Bigapplegym&query_place_id=ChIJyUZL4o0z5xQR4f7jhhep9hQ"
"Sav's Gym","5","15","214 Kanika Ideal Building, Μακαρίου ΙΙΙ","Limassol",,"CY",,"+357 99 460468","Gym","https://www.google.com/maps/search/?api=1&query=Sav's%20Gym&query_place_id=ChIJQ3EY-Kcz5xQRF7eh6K_miM4"
"Combat & Fitness","5","15","Vasileos Pavlou 44","Limassol",,"CY","https://www.combatandfitness.com/","+357 97 585658","Fitness center","https://www.google.com/maps/search/?api=1&query=Combat%20%26%20Fitness&query_place_id=ChIJy_zs3wwz5xQR46BGIe5_zkA"
"Limassol Sporting Center","3.2","276","I BRIDGE, GEORGIOU NEOFYDOU 24,MESA GEITONIA, HOUSE BLOCK D, FLAT G2","Limassol",,"CY","https://www.limassolsportingcenter.com/",,"Gym","https://www.google.com/maps/search/?api=1&query=Limassol%20Sporting%20Center&query_place_id=ChIJnwfCN0Uz5xQR9juwUKgWEuA"
"Bodyfitness Gym Center","4.7","45","Jean Sibelius","Limassol",,"CY","https://bodyfitnessgymcentre.com/","+357 99 817412","Fitness center","https://www.google.com/maps/search/?api=1&query=Bodyfitness%20Gym%20Center&query_place_id=ChIJGwp1Zqwz5xQRtpPqwIxpSNw"
"Fame fast fitness by miha bodytec- EMS STUDIO-","5","36","Apostolou Andrea 9","Mesa Geitonia",,"CY","https://www.facebook.com/famefastfitness/","+357 70 007303","Gymnastics center","https://www.google.com/maps/search/?api=1&query=Fame%20fast%20fitness%20by%20miha%20bodytec-%20EMS%20STUDIO-&query_place_id=ChIJo51uYxYz5xQRmUzvvjzv4Ps"
"Balance Fitness Centre","4.9","26",,"Limassol",,"CY","http://balancefitnesscentre.com/","+357 99 338854","Gym","https://www.google.com/maps/search/?api=1&query=Balance%20Fitness%20Centre&query_place_id=ChIJhfqyN4Mz5xQRBfLh93yg_7Q"
"ASF&PERFORMANCE LIMASSOL CYPRUS (GYM) (Taekwondo )","5","23","Vasileos Konstantinou 21-SHOP 5","Limassol",,"CY",,"+357 99 851085","Gym","https://www.google.com/maps/search/?api=1&query=ASF%26PERFORMANCE%20LIMASSOL%20CYPRUS%20(GYM)%20(Taekwondo%20)&query_place_id=ChIJd9MmnOs15xQR84-EILW4BN8"
"CrossFit Limassol","4.8","87","Shakespeare 9","Limassol",,"CY","http://www.crossfitlimassol.com/","+357 25 340271","Gym","https://www.google.com/maps/search/?api=1&query=CrossFit%20Limassol&query_place_id=ChIJB0_LZQEz5xQRTAyI8MP8e7g"
"Iron Fitness","5","234","Agias Fylaxeos, & 1","Limassol",,"CY","http://ironfitnesslimassol.com/","+357 96 509265","Personal trainer","https://www.google.com/maps/search/?api=1&query=Iron%20Fitness&query_place_id=ChIJy_8_A1Mz5xQRNWIh-QMTDuo"
"ARA GYM XL","4.5","166","Mishiaouli kai kavazglou kai anti filita 1 LIMASSOL","Limassol",,"CY","/url?q=https://ara-gym.com/&opi=79508299&sa=U&ved=0ahUKEwjd9rudzeqQAxWtkokEHSXzAtsQ61gIFCgQ&usg=AOvVaw0LLCIApx7Htj_etKATywuv","+357 25 006942","Gym","https://www.google.com/maps/search/?api=1&query=ARA%20GYM%20XL&query_place_id=ChIJcX1d1mYz5xQRhs1W9GtnmVE"
"Team Rogue Forge","4.8","19","Spyrou Kyprianou Ave 116","Limassol",,"CY","https://www.teamrogueforge.com.cy/","+357 25 101116","Gym","https://www.google.com/maps/search/?api=1&query=Team%20Rogue%20Forge&query_place_id=ChIJHQ82yp8z5xQRmk795E3BudA"
"Reload Fitness Studio","4.9","71","Eleftherias 119","Limassol",,"CY","https://reload-fitness.com/","+357 25 583382","Gym","https://www.google.com/maps/search/?api=1&query=Reload%20Fitness%20Studio&query_place_id=ChIJOVZRwYMz5xQR23LeifWfgiI"
"MUSCLE FACTORY 24 HOURS","4.5","203","Georgiou Griva Digeni 16","Limassol",,"CY","https://www.musclefactory24hrs.com/","+357 25 108234","Gym","https://www.google.com/maps/search/?api=1&query=MUSCLE%20FACTORY%2024%20HOURS&query_place_id=ChIJyZnxo2oz5xQRr4copu7xA1g"
"Grind Fitness","5","73","Steliou Kiriakidi","Limassol",,"CY","https://grindfitnesscy.com/","+357 99 810035","Gym","https://www.google.com/maps/search/?api=1&query=Grind%20Fitness&query_place_id=ChIJoZ4RDVQz5xQR5r1Rbrq3gD8"
"Fitness Code","5","4","Militou 7","Limassol",,"CY","https://instagram.com/fitness_code__?igshid=MzMyNGUyNmU2YQ==","+357 99 185233","Gym","https://www.google.com/maps/search/?api=1&query=Fitness%20Code&query_place_id=ChIJO8Y0Q6Mz5xQRdpoM_YDGQvA"
"CHS Fitness Club","4.4","77","Archiepiskopou Leontiou A 250B","Street",,"CY","https://www.chsfitnessclub.com.cy/","+357 25 250101","Gym","https://www.google.com/maps/search/?api=1&query=CHS%20Fitness%20Club&query_place_id=ChIJz4ezUKgz5xQRWcOxj8YEVr8"
"Sanctum Spa & Fitness","4.7","398","Limassol Marina St","Limassol",,"CY","http://sanctum.life/","+357 25 100109","Spa and health club","https://www.google.com/maps/search/?api=1&query=Sanctum%20Spa%20%26%20Fitness&query_place_id=ChIJ0yVFQcgz5xQR8Z9RYqwa4tc"
"VIP-GYM","4.6","93","Steliou Kiriakidi","Limassol",,"CY","http://www.vipgym.com.cy/","+357 77 776525","Gym","https://www.google.com/maps/search/?api=1&query=VIP-GYM&query_place_id=ChIJC_Xvl5kz5xQRtOQFkuLA3RE"
"Anaplasis Gym Fitness Center Limassol","4.8","751","Kanika Business Center, Enaerios, 28 October Ave 319A","Limassol",,"CY","https://www.anaplasisgym.com.cy/","+357 25 585242","Gym","https://www.google.com/maps/search/?api=1&query=Anaplasis%20Gym%20Fitness%20Center%20Limassol&query_place_id=ChIJvXw2qD8z5xQRj7IKcxTuE8I"
"Muscle Activation Fitness Studio","5","4","Sikinou 5A","Limassol",,"CY","https://www.facebook.com/pg/muscleactivation2019","+357 99 796220","Gym","https://www.google.com/maps/search/?api=1&query=Muscle%20Activation%20Fitness%20Studio&query_place_id=ChIJ5xO4bxwz5xQRV5huJ1Ajjac"
"GYMANIA FITNESS CLUB","4.9","363","Agias Filaxeos","Limassol",,"CY","http://www.gymaniafitnessclub.com/","+357 25 253202","Fitness center","https://www.google.com/maps/search/?api=1&query=GYMANIA%20FITNESS%20CLUB&query_place_id=ChIJ2_4m2p0z5xQR5R2cZp50a9Y"
"Champ Boxing Academy","5","11","TK 3082, Rizokarpasou 27","Limassol",,"CY","http://www.champboxingacademy.com/","+357 99 332615","Boxing gym","https://www.google.com/maps/search/?api=1&query=Champ%20Boxing%20Academy&query_place_id=ChIJHaoLtlkz5xQRqZ7V2LIOB7c"
"Her Gym Limassol","4.8","109","Omonoias 19","Limassol",,"CY","https://hergym.cy/","+357 25 255266","Gym","https://www.google.com/maps/search/?api=1&query=Her%20Gym%20Limassol&query_place_id=ChIJG1zzA-4z5xQRtPakT4wXSyE"
"Dreamchasers Fitness Studio","5","56","Kekropos 8","Limassol",,"CY","https://dreamchasers.cy/","+357 97 664716","Gym","https://www.google.com/maps/search/?api=1&query=Dreamchasers%20Fitness%20Studio&query_place_id=ChIJr3z5kVMz5xQRDnfYZO8dRTU"
"Eleftheriou Lifestyle Fitness Club","5","2","Pafou 218","Kato Polemidia",,"CY","https://www.facebook.com/share/1JdAxPoANb/",,"Gym","https://www.google.com/maps/search/?api=1&query=Eleftheriou%20Lifestyle%20Fitness%20Club&query_place_id=ChIJpbB6AwAz5xQRPKZZLQseM3U"
"5 Rounds MMA Limassol","4.9","37","BASEMENT, Misiaouli & Kavazoglou 27","Limassol",,"CY","https://www.facebook.com/5-Rounds-MMA-Limassol-110644453668694/","+357 99 848288","Gym","https://www.google.com/maps/search/?api=1&query=5%20Rounds%20MMA%20Limassol&query_place_id=ChIJb81JDRcz5xQRcAcpwqsgAxs"
"Route Fitness Club","4.9","42","Κάτω Πολεμίδια, Konstantinou Laskari","Kato Polemidia",,"CY","http://www.routefitnessclub.com/","+357 25 583818","Gym","https://www.google.com/maps/search/?api=1&query=Route%20Fitness%20Club&query_place_id=ChIJX3HzgE4z5xQRRCQhJVsp9dU"
"Modus Vivendi Health Centre","4","37",,"Limassol",,"CY","https://m.facebook.com/Modus.Vivendi.Gym/","+357 25 870002","Fitness center","https://www.google.com/maps/search/?api=1&query=Modus%20Vivendi%20Health%20Centre&query_place_id=ChIJN-MPtMEz5xQRr0ncYZYDkgk"
"Slim and Smart Fitness Studio","4.4","13","Agiou Andreou 350","Limassol",,"CY","https://www.instagram.com/slim_and_smart_cyprus/","+357 96 701181","Fitness center","https://www.google.com/maps/search/?api=1&query=Slim%20and%20Smart%20Fitness%20Studio&query_place_id=ChIJ2yw65t8z5xQRB83TN4lf_qs"
"Elite Boxing Club","4.9","15","Arch. Makarios III Avenue 79","Limassol",,"CY","https://www.facebook.com/eliteboxing/?ref=br_rs","+357 99 375738","Boxing club","https://www.google.com/maps/search/?api=1&query=Elite%20Boxing%20Club&query_place_id=ChIJV4Eupq4z5xQRIVQHcVivbGA"
"R-evolution of Gym","4.6","12","Franklin Roosevelt 216","Limassol",,"CY","https://m.facebook.com/Revolutionofgym/","+357 99 884899","Gym","https://www.google.com/maps/search/?api=1&query=R-evolution%20of%20Gym&query_place_id=ChIJ685IdhIz5xQRcxwdR_UqBdc"
"PROGRESS GYM","4.5","30","Katholiki, 1,Voriou Ipeirou Street","Limassol",,"CY","https://www.instagram.com/progressgymcy?igsh=MWFodW9pbWJnOWI5Nw==",,"Gym","https://www.google.com/maps/search/?api=1&query=PROGRESS%20GYM&query_place_id=ChIJn5mXEb8z5xQRpAG6DNo0cfU"
"YOU & ME Personal Training GYM","5","9","Agias Zonis 29","Limassol",,"CY","https://www.facebook.com/YouandMePersonalTrainingGym/","+357 99 526020","Gym","https://www.google.com/maps/search/?api=1&query=YOU%20%26%20ME%20Personal%20Training%20GYM&query_place_id=ChIJWXtLbeMz5xQRJ4drT2NjsPw"
"Salveo Health & Fitness","4.7","44","Μάρκου Δράκου 37 &, Panagioti Simeou 3","Mesa Geitonia",,"CY","https://www.facebook.com/SalveoGym/","+357 25 582201","Gym","https://www.google.com/maps/search/?api=1&query=Salveo%20Health%20%26%20Fitness&query_place_id=ChIJ5Z8ZI1sz5xQRDsZRf3bf-sU"
"GFitness Functional Training","5","7","Ioannou Tsirou","Limassol",,"CY","https://www.facebook.com/pg/GFitnessFTC/about/?tab=overview","+357 25 101311","Gym","https://www.google.com/maps/search/?api=1&query=GFitness%20Functional%20Training&query_place_id=ChIJ312XTAgz5xQRlySm8VJOQWA"
"Bodysense Health&Fitness Centre","4.8","37","Αγγαιου 3-4154","Limassol",,"CY","https://www.facebook.com/BodysenseLimassol/","+357 25 574646","Gym","https://www.google.com/maps/search/?api=1&query=Bodysense%20Health%26Fitness%20Centre&query_place_id=ChIJBQCQrEoy5xQRcZp2b6NTadk"
"The FitZone by Kondylis","4.8","42","Spyrou Kyprianou Ave 145","Limassol",,"CY","https://linktr.ee/thefitzonebykondylis","+357 25 750476","Gym","https://www.google.com/maps/search/?api=1&query=The%20FitZone%20by%20Kondylis&query_place_id=ChIJw3z3H28z5xQRx3f32JILnsU"
"Kalopedi Gym","4.8","33","Pikioni","Limassol",,"CY","https://www.instagram.com/kalopedifitnessclub/","+357 25 332900","Gym","https://www.google.com/maps/search/?api=1&query=Kalopedi%20Gym&query_place_id=ChIJx_1l56Yz5xQRqEI_qHjFA2U"
"Raw Calisthenics Academy","5","92","M.L.K.","Limassol",,"CY","https://instagram.com/raw_calisthenicsacademy?igshid=YmMyMTA2M2Y=","+357 97 452944","Gym","https://www.google.com/maps/search/?api=1&query=Raw%20Calisthenics%20Academy&query_place_id=ChIJRzwf8awz5xQRn2ULzUPIkFA"
"MuscleKing Fitness Gym","4.7","49",,"Limassol",,"CY","https://www.facebook.com/musclekingfitness/","+357 99 577489","Gym","https://www.google.com/maps/search/?api=1&query=MuscleKing%20Fitness%20Gym&query_place_id=ChIJHx9kJQQz5xQRP0XdA339k2k"
"Power Beach","4.9","77","Προμαχών Ελευθερίας 34","Agios Athanasios",,"CY","https://www.facebook.com/powerbeachdasoudi","+357 97 725520","Gym","https://www.google.com/maps/search/?api=1&query=Power%20Beach&query_place_id=ChIJtzEg0v0z5xQR7PlBz77FYnw"
