"title","totalScore","reviewsCount","street","city","state","countryCode","website","phone","categoryName","url"
"Rock Diamond Msa Muay Thai Club","5","4","Palaion Patron Germanou 24","Egkomi",,"CY",,"+357 70 002001","Muay Thai boxing gym","https://www.google.com/maps/search/?api=1&query=Rock%20Diamond%20Msa%20Muay%20Thai%20Club&query_place_id=ChIJWX3z_04b3hQRQeqaFxtOTtw"
"The Yogi Turtle","5","16","Archiepiskopou Kyprianou 29","Nicosia",,"CY","https://www.yogiturtlestudio.com/","+357 99 357842","Yoga studio","https://www.google.com/maps/search/?api=1&query=The%20Yogi%20Turtle&query_place_id=ChIJ1fozwLMb3hQRUTjpdas2zvE"
"Nicosia City Club","4.6","45",,"Ortakoy",,"CY","http://www.sehirkulubu.org/","+90 533 887 07 00","Tennis club","https://www.google.com/maps/search/?api=1&query=Nicosia%20City%20Club&query_place_id=ChIJZVk6IrUQ3hQRpmRAFePCAQ8"
"Natya-Yoga / Πνοή Studio",,"0","Christou Keli 15","Strovolos",,"CY","https://www.natya-yoga.com/","+357 99 381345","Yoga studio","https://www.google.com/maps/search/?api=1&query=Natya-Yoga%20%2F%20%CE%A0%CE%BD%CE%BF%CE%AE%20Studio&query_place_id=ChIJky9ciA4Z3hQRLsHCuxOatrU"
"Life Centre - Yoga","4.8","6","Archimidous 13","Egkomi",,"CY","http://www.lifecentreyoga.com/","+357 96 288941","Yoga studio","https://www.google.com/maps/search/?api=1&query=Life%20Centre%20-%20Yoga&query_place_id=ChIJlfAYrPoZ3hQRwtGIQYqmXp4"
"E-Motion Dance & Health Studio - Viantos","4.8","16","Viantos 8","Strovolos",,"CY","https://www.emotioncy.com/","+357 70 007061","Pilates studio","https://www.google.com/maps/search/?api=1&query=E-Motion%20Dance%20%26%20Health%20Studio%20-%20Viantos&query_place_id=ChIJDR41fC8a3hQRqJhyxdlyI_4"
"Namaste Yoga Home Studio","5","2","Evropis 14, 1087 flat 102","Nicosia",,"CY",,"+357 99 435040","Yoga studio","https://www.google.com/maps/search/?api=1&query=Namaste%20Yoga%20Home%20Studio&query_place_id=ChIJhbOhVY4Z3hQROA-NobkUW_g"
"Ashtanga Nicosia","5","9","Rodou 8 1086","Nicosia",,"CY","https://ashtanganicosia.com/","+357 99 432103","Yoga studio","https://www.google.com/maps/search/?api=1&query=Ashtanga%20Nicosia&query_place_id=ChIJBwCF9vwZ3hQREg_bAj6L334"
"Keenan Rehab and Fitness","4.3","6","Lykavitou 65","Egkomi",,"CY",,"+357 99 909566","Gym","https://www.google.com/maps/search/?api=1&query=Keenan%20Rehab%20and%20Fitness&query_place_id=ChIJhbFNrQAb3hQRwnkRQlGlwDA"
"Medfit Clinical Pilates Studio","5","3","Stadiou 51","Strovolos",,"CY","https://my.fitune.io/medfitpilates","+357 99 822408","Pilates studio","https://www.google.com/maps/search/?api=1&query=Medfit%20Clinical%20Pilates%20Studio&query_place_id=ChIJrTc8NlEb3hQRgj2Y3zooIgI"
"Ambitus Reformer Pilates","5","6","Karava 6","Aglantzia",,"CY",,"+357 97 658348","Pilates studio","https://www.google.com/maps/search/?api=1&query=Ambitus%20Reformer%20Pilates&query_place_id=ChIJg692YQAZ3hQRt8XBkqWZt74"
"Riforma pilates studio","5","19","Tseriou 24C","Strovolos",,"CY","http://www.riformapilatesstudio.com/","+357 94 093703","Pilates studio","https://www.google.com/maps/search/?api=1&query=Riforma%20pilates%20studio&query_place_id=ChIJA2Yctw0b3hQRkcnrOZdwnLU"
"Atilla Topaloğlu Spor Tesisi","4.5","2","Atatürk Cd 89","Nicosia",,"CY",,,"Gym","https://www.google.com/maps/search/?api=1&query=Atilla%20Topalo%C4%9Flu%20Spor%20Tesisi&query_place_id=ChIJDUhW96YX3hQRlv8USpXqVxg"
"Renzo Gracie Nicosia - Brazilian Jiu Jitsu","4.6","29","Sports Center, B18 150","Agios Dometios",,"CY",,"+357 99 540008","Martial arts school","https://www.google.com/maps/search/?api=1&query=Renzo%20Gracie%20Nicosia%20-%20Brazilian%20Jiu%20Jitsu&query_place_id=ChIJdeM8jhAb3hQRZhDaw2BAdcw"
"ĀKĀŚA YOGA STUDIO","5","8","Acropoleos Ave 71-3rd floor Flat 32","Nicosia",,"CY","http://www.marilenashyamashakti.com/","+357 96 603633","Yoga studio","https://www.google.com/maps/search/?api=1&query=%C4%80K%C4%80%C5%9AA%20YOGA%20STUDIO&query_place_id=ChIJ_1yeDWwX3hQRGZe6mQNKarI"
"Filippos Taekwondo ITF Nicosia","4.9","43","Kyriakou Matsi 8","Nicosia",,"CY","http://www.filippostaekwondo.com/","+357 99 252242","Martial arts school","https://www.google.com/maps/search/?api=1&query=Filippos%20Taekwondo%20ITF%20Nicosia&query_place_id=ChIJ6zM4QP0Z3hQR_geLLkACz_0"
"BHAVA","5","24","Ροίκου 9","Nicosia",,"CY","http://bhava.studio/","+357 97 730979","Yoga studio","https://www.google.com/maps/search/?api=1&query=BHAVA&query_place_id=ChIJ_RgasKIX3hQR0-X-EqnHw4c"
"In2Motion Fitness Studio","5","10","E902 149","Strovolos",,"CY",,"+357 99 775895","Fitness center","https://www.google.com/maps/search/?api=1&query=In2Motion%20Fitness%20Studio&query_place_id=ChIJeb_zjacb3hQRnSKnnpJWiLI"
"Cyprus Bujinkan Dojo - Nicosia","5","7","Athalassas Ave 130","Nicosia",,"CY","http://www.ninjacy.com/","+357 95 110644","Martial arts club","https://www.google.com/maps/search/?api=1&query=Cyprus%20Bujinkan%20Dojo%20-%20Nicosia&query_place_id=ChIJzYjMbusZ3hQRNhCGjxWO9iA"
"White Light","5","4","Kykladon 11","Strovolos",,"CY",,"+357 99 522424","Educational institution","https://www.google.com/maps/search/?api=1&query=White%20Light&query_place_id=ChIJS8j3gDQa3hQRTaNt5-0NweQ"
"PIS FITNESS","5","199","Tseriou 34D","Strovolos",,"CY","https://www.pisfitness.com/","+357 22 252705","Exercise equipment store","https://www.google.com/maps/search/?api=1&query=PIS%20FITNESS&query_place_id=ChIJvwRSZy8a3hQRR9KZ-57RO0w"
"PILATES bodyharmony studio","2.3","3","John Kennedy 14","Nicosia",,"CY","http://www.pilatesbodyharmony.com/","+357 22 444612","Pilates studio","https://www.google.com/maps/search/?api=1&query=PILATES%20bodyharmony%20studio&query_place_id=ChIJQWXkEmga3hQRtdgG8oz7eFk"
"Sharpa Climb Inn","5","14","Borazanbaşı Sk","Nicosia",,"CY",,"+90 548 867 11 00","Rock climbing gym","https://www.google.com/maps/search/?api=1&query=Sharpa%20Climb%20Inn&query_place_id=ChIJA9gZEhoX3hQRFun1XeQ213U"
"Cocoon Wellness Centre","5","33","ap. 201, Athalassas Ave 130","Nicosia",,"CY","http://www.cocoonwellnesscentre.com/","+357 99 325558","Yoga studio","https://www.google.com/maps/search/?api=1&query=Cocoon%20Wellness%20Centre&query_place_id=ChIJHX_CspwZ3hQRghCfnByv6jc"
"Ruso Running Track","4.6","83","59R6+7VR, Atatürk Caddesi","Nicosia",,"CY",,,"Athletic track","https://www.google.com/maps/search/?api=1&query=Ruso%20Running%20Track&query_place_id=ChIJ5REQ4ToX3hQRbB-_EMG7ZBU"
"For Me Clinical Physio Pilates Studio","5","67","Kyrenias 93","Nicosia",,"CY","https://www.formepilates.eu/","+357 94 009009","Pilates studio","https://www.google.com/maps/search/?api=1&query=For%20Me%20Clinical%20Physio%20Pilates%20Studio&query_place_id=ChIJ5YI8pyUZ3hQR_u8dJWPInms"
"Stretch Pilates & Fitness Studio","5","1","Andrea Miaouli 46b","Nicosia",,"CY",,"+357 99 555989","Gym","https://www.google.com/maps/search/?api=1&query=Stretch%20Pilates%20%26%20Fitness%20Studio&query_place_id=ChIJnznfWVwa3hQRKMahzbn_RLw"
"Euphoria bodies in motion","4.5","2","Michail Georgalla 4, 2409","Egkomi",,"CY","https://www.euphoriacy.com/","+357 22 270122","Fitness center","https://www.google.com/maps/search/?api=1&query=Euphoria%20bodies%20in%20motion&query_place_id=ChIJd37nQXIa3hQRJBgprqeT_Hc"
"Balanced Body Cy","5","40","Iakovou Patatsou 44","Egkomi",,"CY","http://balancedbody.com.cy/","+357 22 353598","Physical therapy clinic","https://www.google.com/maps/search/?api=1&query=Balanced%20Body%20Cy&query_place_id=ChIJH-4KkA8a3hQRqEtSrhmVfOo"
"HFSC",,"0","Kantaras 42","Nicosia",,"CY","http://hfsc.eu/","+357 96 388978","Gym","https://www.google.com/maps/search/?api=1&query=HFSC&query_place_id=ChIJ51nTmF0X3hQRruA9aZfYIz4"
"Studio 6 by Andreas Pilavas","5","9","Katsoni 29A","Nicosia",,"CY","http://www.s-studio6.com/","+357 99 689131","Personal trainer","https://www.google.com/maps/search/?api=1&query=Studio%206%20by%20Andreas%20Pilavas&query_place_id=ChIJiZxkxPIZ3hQRsaA2mQ92gjw"
"Uppercut TEAM Cyprus boxing - Kickboxing School in Strovolos, Nicosia","5","31","Costa Anaxagora 21B","Strovolos",,"CY","https://shorturl.at/6w2Wv","+357 96 444787","Kickboxing school","https://www.google.com/maps/search/?api=1&query=Uppercut%20TEAM%20Cyprus%20boxing%20-%20Kickboxing%20School%20in%20Strovolos%2C%20Nicosia&query_place_id=ChIJUQAiMDAX3hQRTkaNCXSbrhc"
"Fit&Shape Cyprus","5","3","Rodou 9","Nicosia",,"CY",,"+357 99 720725","Fitness center","https://www.google.com/maps/search/?api=1&query=Fit%26Shape%20Cyprus&query_place_id=ChIJC2gPosMZ3hQRf6DzVV8cN74"
"GüralpFit","4.8","12","İbrahimpaşa Vakıflar Sk. No:15A/B, Vakıflar Sk","Nicosia",,"CY",,,"Gym","https://www.google.com/maps/search/?api=1&query=G%C3%BCralpFit&query_place_id=ChIJ6wuzqRoX3hQRptOyTITGL6A"
"MAD Moves Pilates Studio",,"0","Prigkipos Karolou 4","Agios Dometios",,"CY","https://linktr.ee/info.madmoves","+357 22 779733","Pilates studio","https://www.google.com/maps/search/?api=1&query=MAD%20Moves%20Pilates%20Studio&query_place_id=ChIJU5b6QvAb3hQR4zLYvHdao8M"
"Fighting & Fitness Sports Gear - www.ffsports.net","4.8","84","Acropoleos Ave 82","Nicosia",,"CY","https://www.ffsports.net/","+357 22 311320","Sporting goods store","https://www.google.com/maps/search/?api=1&query=Fighting%20%26%20Fitness%20Sports%20Gear%20-%20www.ffsports.net&query_place_id=ChIJ91OUQnQX3hQRDex-dvlN-Pg"
"NS6 Fitness",,"0","Georgiou Christoforou 12","Nicosia",,"CY",,,"Gym","https://www.google.com/maps/search/?api=1&query=NS6%20Fitness&query_place_id=ChIJtT8oPgAZ3hQRbTQITyCmJC0"
"The '""Pilates & Garuda"" center","5","1","Ioanni Kliridi 2","Nicosia",,"CY",,"+357 99 646743","Gym","https://www.google.com/maps/search/?api=1&query=The%20'%22Pilates%20%26%20Garuda%22%20center&query_place_id=ChIJ9WEK1S8X3hQRAXzbkk9kAE0"
"Hellenic Bank Masters Tennis Academy","4.8","13","Stadiou 44","Strovolos",,"CY",,"+357 22 105929","Gym","https://www.google.com/maps/search/?api=1&query=Hellenic%20Bank%20Masters%20Tennis%20Academy&query_place_id=ChIJv0G3-xga3hQR2RbCPiDsEBA"
"Aurora Pilates Studio","5","10","Odysseos 11","Strovolos",,"CY","https://www.instagram.com/aurorapilatestudio","+357 22 252517","Pilates studio","https://www.google.com/maps/search/?api=1&query=Aurora%20Pilates%20Studio&query_place_id=ChIJGYO0bjsb3hQRyqiC6_4QBtc"
"Alice's fitness studio",,"0","Prodromou 107","Nicosia",,"CY",,"+357 99 871455","Gymnastics center","https://www.google.com/maps/search/?api=1&query=Alice's%20fitness%20studio&query_place_id=ChIJW-K3E8sZ3hQR-o2pKvdu0Ug"
"Domination Strength and Conditioning Center","5","2","Aglantzias 83","Aglantzia",,"CY",,"+357 97 892399","Training center","https://www.google.com/maps/search/?api=1&query=Domination%20Strength%20and%20Conditioning%20Center&query_place_id=ChIJF3Wc6HsZ3hQRBK2RWGvqZoc"
"Interplay","5","2","Estias 3","Nicosia",,"CY","http://www.interplaycenter.com/","+357 99 722488","Gym","https://www.google.com/maps/search/?api=1&query=Interplay&query_place_id=ChIJw-d3bYEZ3hQRsX_W0t3oQjY"
"ZUMEX Strength and Performance","5","6","Ammochostou 64","Aglantzia",,"CY","http://www.zumexfitness.com/","+357 99 242088","Gym","https://www.google.com/maps/search/?api=1&query=ZUMEX%20Strength%20and%20Performance&query_place_id=ChIJicbpBGcX3hQRDi5hzbHVuA0"
"Judo Cyprus - Kerynia Judo Union","5","8","B16 18","Nicosia",,"CY","http://keryniajudo.wordpress.com/","+357 99 528007","Gym","https://www.google.com/maps/search/?api=1&query=Judo%20Cyprus%20-%20Kerynia%20Judo%20Union&query_place_id=ChIJEZ0VElEX3hQR6XshEb9cVBE"
"Fit 2 The Point","4.9","38","Perikleous","Strovolos",,"CY","http://fit2thepoint.com/","+357 70 087387","Gym","https://www.google.com/maps/search/?api=1&query=Fit%202%20The%20Point&query_place_id=ChIJkcsdHxsb3hQRRjZKhBz4xJk"
"Ananda Yoga Studio","5","43","Chalkokondyli 23Α","Nicosia",,"CY","https://www.instagram.com/ananda_yoga11?igsh=ZTVmcnplazlpa293","+357 99 584148","Yoga studio","https://www.google.com/maps/search/?api=1&query=Ananda%20Yoga%20Studio&query_place_id=ChIJAyN74esX3hQRMpJBBuq90Bk"
"Calisthenics area","4.3","10","585F+XRH","Egkomi",,"CY",,,"Gym","https://www.google.com/maps/search/?api=1&query=Calisthenics%20area&query_place_id=ChIJTyDjoCYb3hQRK7uvV5aSKEM"
"INTENSE FITNESS & PHYSIO CENTRE","4.3","12","Ilia Papakiriakou 40","Egkomi",,"CY","https://intensefitness.com.cy/","+357 22 336690","Fitness center","https://www.google.com/maps/search/?api=1&query=INTENSE%20FITNESS%20%26%20PHYSIO%20CENTRE&query_place_id=ChIJY6sRzrsb3hQRfXzrDjrpAEI"
"PowerHouse Pilates Studio mc","5","2","Nikis 2","Nicosia",,"CY",,"+357 99 633886","Gym","https://www.google.com/maps/search/?api=1&query=PowerHouse%20Pilates%20Studio%20mc&query_place_id=ChIJbafBnykZ3hQRWZpAU1AAzEw"
"RYLTODAY","5","15","Skopa 7","Nicosia",,"CY","http://www.ryltoday.com/","+357 99 528500","Physical fitness program","https://www.google.com/maps/search/?api=1&query=RYLTODAY&query_place_id=ChIJscMp6nsZ3hQR5F8PSgJcbGc"
"GYMAC BOUTIQUE FITNESS & PERSONAL TRAINING","3.2","25","Mustafa Arif Sk 30","Agios Dometios",,"CY","https://www.instagram.com/gymaccy?igsh=MWVoNmI4Z3loM2hmNg==","+90 548 864 96 22","Fitness center","https://www.google.com/maps/search/?api=1&query=GYMAC%20BOUTIQUE%20FITNESS%20%26%20PERSONAL%20TRAINING&query_place_id=ChIJfV4mH8gR3hQR_w7K1tGJLbk"
"PhysioPatterns","5","48","Dimokratias 24B","Nicosia",,"CY","https://www.instagram.com/physiopatterns/","+357 99 320104","Physical therapist","https://www.google.com/maps/search/?api=1&query=PhysioPatterns&query_place_id=ChIJU40W4ecb3hQRK_NL4q71EnQ"
"Exclusive Gym","4.5","8","Ροίκου","Nicosia",,"CY","https://exclusivegymcyprus.wixsite.com/exclusivegym","+357 96 845093","Women's personal trainer","https://www.google.com/maps/search/?api=1&query=Exclusive%20Gym&query_place_id=ChIJxZa1ltkX3hQR7Mzy-mGbevk"
"ELITE BODY MANAGEMENT","4.9","15","Kallipoleos 36","Nicosia",,"CY","https://elitebody.net/","+357 22 254890","Fitness center","https://www.google.com/maps/search/?api=1&query=ELITE%20BODY%20MANAGEMENT&query_place_id=ChIJOVPRYpMZ3hQR2W78PfBfCVw"
"Olympiakos Sporting Centre","5","3","59C9+4C3, Archbishop Makarios II","Nicosia",,"CY","http://www.olympiakos.com.cy/","+357 22 344080","Gym","https://www.google.com/maps/search/?api=1&query=Olympiakos%20Sporting%20Centre&query_place_id=ChIJJdnz1EIX3hQRXggNFDlCppg"
"Level Up Pilates Studio Strovolos","5","1","E902 118A","Nicosia",,"CY","https://www.instagram.com/levelup_pilatesstudio?igsh=MTFoc3FmOXFwOXRvNQ==","+357 99 013219","Pilates studio","https://www.google.com/maps/search/?api=1&query=Level%20Up%20Pilates%20Studio%20Strovolos&query_place_id=ChIJuxljKrob3hQRLdN1qlXICho"
"Global Vale Tudo - Combat Sports Academy","5","28","Athalassas Ave 60","Strovolos",,"CY","https://www.globalvaletudo.org/","+357 99 237642","Martial arts school","https://www.google.com/maps/search/?api=1&query=Global%20Vale%20Tudo%20-%20Combat%20Sports%20Academy&query_place_id=ChIJtWSbksMb3hQRgZbV5_1SU8U"
"BOBI BOXING CLUB","5","27","Kallipoleos 26","Nicosia",,"CY",,"+357 96 690872","Boxing club","https://www.google.com/maps/search/?api=1&query=BOBI%20BOXING%20CLUB&query_place_id=ChIJC_KsGQkX3hQRz689jGOOzTA"
"Ambitus Fitness","4.8","33","Karava 6c","Aglantzia",,"CY","http://ambitusfitness.com/","+357 22 253606","Gym","https://www.google.com/maps/search/?api=1&query=Ambitus%20Fitness&query_place_id=ChIJK4QmNSsY3hQRlsxErJcOBf4"
"Health & Body Refuel","5","5","Vasileos Pavlou 42A","Agios Dometios",,"CY","http://www.healthandbodyrefuel.com/","+357 97 809657","Fitness center","https://www.google.com/maps/search/?api=1&query=Health%20%26%20Body%20Refuel&query_place_id=ChIJDWl_Q8QR3hQRpaqYFeP1KCc"
"Physio'n'Fitness","5","15","Kyriakou Matsi Avenue 48CD","Nicosia",,"CY",,"+357 94 067100","Wellness center","https://www.google.com/maps/search/?api=1&query=Physio'n'Fitness&query_place_id=ChIJI6btFlwZ3hQRlCZTUYvb6bs"
"Karma Studio","5","29","Giannou Kranidioti 10","Nicosia",,"CY","http://klkarma.com/","+357 97 606063","Pilates studio","https://www.google.com/maps/search/?api=1&query=Karma%20Studio&query_place_id=ChIJDbxdAlgX3hQRpNWHSbpSPCE"
"Absolut Pilates & Fitness Studio","5","5","5976+XGP, Foti Pitta","Nicosia",,"CY","http://www.absolutpilatesfitness.com/","+357 22 260296","Gym","https://www.google.com/maps/search/?api=1&query=Absolut%20Pilates%20%26%20Fitness%20Studio&query_place_id=ChIJuRcbSlgX3hQRyG0xgHHkePg"
"TFJ -The Fitness Joint Nicosia","5","5","Stadiou 51Z","Strovolos",,"CY","https://tfjnicosia.com/","+357 99 419149","Fitness equipment wholesaler","https://www.google.com/maps/search/?api=1&query=TFJ%20-The%20Fitness%20Joint%20Nicosia&query_place_id=ChIJW7THzqob3hQRurLJHFB0WaE"
"Γυμναστήριο Ρυθμικής Γυμναστικής ΜΕΛΙΣΣΑΝΙΔΗΣ","4.2","5","49XF+8CG Lykio dasoupolis, Atlantos","Strovolos",,"CY","http://www.facebook.com/melissanidesdasou/","+357 99 492618","Gym","https://www.google.com/maps/search/?api=1&query=%CE%93%CF%85%CE%BC%CE%BD%CE%B1%CF%83%CF%84%CE%AE%CF%81%CE%B9%CE%BF%20%CE%A1%CF%85%CE%B8%CE%BC%CE%B9%CE%BA%CE%AE%CF%82%20%CE%93%CF%85%CE%BC%CE%BD%CE%B1%CF%83%CF%84%CE%B9%CE%BA%CE%AE%CF%82%20%CE%9C%CE%95%CE%9B%CE%99%CE%A3%CE%A3%CE%91%CE%9D%CE%99%CE%94%CE%97%CE%A3&query_place_id=ChIJXZY6yfoZ3hQRQPd4ciwFS-A"
"FIT ME FITNESS STUDIO","5","2","Naxou","Nicosia",,"CY",,"+357 99 766373","Gym","https://www.google.com/maps/search/?api=1&query=FIT%20ME%20FITNESS%20STUDIO&query_place_id=ChIJs2U1wSQX3hQRKXr9y5cL8W8"
"TCYCLE","5","16","Chytron 30","Nicosia",,"CY","http://t-cycle.eu/",,"Gym","https://www.google.com/maps/search/?api=1&query=TCYCLE&query_place_id=ChIJoTre9IAX3hQRkZkej4Cy85c"
"Nicosia Brisk Walking meeting point (Start of Grammiko/Linear Park)",,"0","Nechrou","Nicosia",,"CY","https://www.facebook.com/groups/nicosiawalkinggroup",,"Gym","https://www.google.com/maps/search/?api=1&query=Nicosia%20Brisk%20Walking%20meeting%20point%20(Start%20of%20Grammiko%2FLinear%20Park)&query_place_id=ChIJwf5SUSAX3hQRGl_Wp-q9pCU"
"Limit Breakers Fitness Studio","5","5","Chiou 3","Nicosia",,"CY",,"+357 99 946131","Gym","https://www.google.com/maps/search/?api=1&query=Limit%20Breakers%20Fitness%20Studio&query_place_id=ChIJxTDrfxAZ3hQRx5tlsUXj6RY"
"Bianco Pool&Bar Lounge","3.6","30","Egaleo 9","Strovolos",,"CY","http://www.nicosiagym.com/","+357 99 623255","Gymnastics center","https://www.google.com/maps/search/?api=1&query=Bianco%20Pool%26Bar%20Lounge&query_place_id=ChIJxzv3YxYa3hQRwQyOkLqewlM"
"Kamae Fitness","4.9","18","Dimokratias 76","Agios Dometios",,"CY",,"+357 96 197953","Gym","https://www.google.com/maps/search/?api=1&query=Kamae%20Fitness&query_place_id=ChIJq355ySMR3hQR5sDHyhDff8o"
"University of Nicosia - UFit Fitness Centre","4.2","75","28th October 24","Egkomi",,"CY","https://www.unic.ac.cy/ufit/","+357 22 842400","Gym","https://www.google.com/maps/search/?api=1&query=University%20of%20Nicosia%20-%20UFit%20Fitness%20Centre&query_place_id=ChIJT2182G4a3hQR9E-ZjTHM7V4"
"UCY Gym","4.5","94",,"Nicosia",,"CY","http://applications.ucy.ac.cy/sportscenter/SPORTSCENTER.main_online_new","+357 22 894182","Gym","https://www.google.com/maps/search/?api=1&query=UCY%20Gym&query_place_id=ChIJv0h1fCAY3hQRh6_OsjE0FCY"
"ENERGEA FITNESS STUDIO - EMS TRAINING & PILATES REFORMER","5","22","72 AB, str., 1076, John Kennedy","Nicosia",,"CY","https://www.emsfitnessstudio.cy/","+357 22 666690","Fitness center","https://www.google.com/maps/search/?api=1&query=ENERGEA%20FITNESS%20STUDIO%20-%20EMS%20TRAINING%20%26%20PILATES%20REFORMER&query_place_id=ChIJ6W6I5OAZ3hQRM9r4liwGDTE"
"Margo Motivates","4.9","25","Metochiou","26BC",,"CY","https://www.margomotivates.com/","+357 96 999500","Gym","https://www.google.com/maps/search/?api=1&query=Margo%20Motivates&query_place_id=ChIJFTlrllQX3hQRQ3243m7xSE0"
"Pure Pilates Nicosia","4.3","6","Armenias 18","Strovolos",,"CY","http://www.facebook.com/purepilatesnicosia","+357 99 808090","Pilates studio","https://www.google.com/maps/search/?api=1&query=Pure%20Pilates%20Nicosia&query_place_id=ChIJ14iceN0Z3hQRTDYjv6pmgjk"
"INTERVAL Gym","5","4","Mystra 10","Egkomi",,"CY","https://interval.com.cy/",,"Gym","https://www.google.com/maps/search/?api=1&query=INTERVAL%20Gym&query_place_id=ChIJ7T0qlb4b3hQRzqLBeyNbBrQ"
"HUPEX Fitness","5","13","Kyriakou Matsi 60","Nicosia",,"CY","https://hupex.fitness/","+357 99 919512","Fitness center","https://www.google.com/maps/search/?api=1&query=HUPEX%20Fitness&query_place_id=ChIJiXLilLEb3hQROYCOPwGC70o"
"Supernatural Gym","4.6","14","B18 179-2369","Agios Dometios",,"CY",,,"Gym","https://www.google.com/maps/search/?api=1&query=Supernatural%20Gym&query_place_id=ChIJjav3w14b3hQRiyKaEuIl07o"
"Sana Hiltonia Health & Fitness Centre","4.4","15","Achaion 1","Egkomi",,"CY",,"+357 22 695165","Fitness center","https://www.google.com/maps/search/?api=1&query=Sana%20Hiltonia%20Health%20%26%20Fitness%20Centre&query_place_id=ChIJhf_OZtwb3hQRl9b7uUrSnss"
"TOUCH GLOVE","4.5","4","Acropoleos Ave 53","Strovolos",,"CY","https://www.instagram.com/touchglove.protraining?igsh=enRnOHJvMTZobGtu","+357 96 242323","Gym","https://www.google.com/maps/search/?api=1&query=TOUCH%20GLOVE&query_place_id=ChIJl54SLJ8Z3hQR8e9JK8i-_gc"
"VIP Fitness Nicosia","4.4","5","Ayias Paraskevis","Egkomi",,"CY","https://vipfitnessnicosia.com/","+357 99 312912","Fitness center","https://www.google.com/maps/search/?api=1&query=VIP%20Fitness%20Nicosia&query_place_id=ChIJTVMkAUUa3hQRcStblkjiUeM"
"Gympro.max","4.3","51",,"Egkomi",,"CY","http://www.gymprocy.com/","+357 22 459955","Gym","https://www.google.com/maps/search/?api=1&query=Gympro.max&query_place_id=ChIJWVHZLAAa3hQR5tKAx-KraVk"
"Nicosia Gymnastic Center","4.7","32","Egaleo","Strovolos",,"CY","http://www.nicosiagym.com/","+357 22 351644","Gymnastics center","https://www.google.com/maps/search/?api=1&query=Nicosia%20Gymnastic%20Center&query_place_id=ChIJT0cmYhYa3hQRLCgq0ZJqkuE"
"Rise Fitness Club","4.8","16","Zinonos Sozou 24","Nicosia",,"CY","https://risefitnessclub.com.cy/","+357 22 255102","Gymnastics club","https://www.google.com/maps/search/?api=1&query=Rise%20Fitness%20Club&query_place_id=ChIJqTMOTywZ3hQRugrWclO8OOs"
"En Somati - Lifestyle Gym, Personal Training, MMA Academy","5","13","Fedras 8","Nicosia",,"CY",,"+357 96 855588","Gym","https://www.google.com/maps/search/?api=1&query=En%20Somati%20-%20Lifestyle%20Gym%2C%20Personal%20Training%2C%20MMA%20Academy&query_place_id=ChIJ8yQHss8Z3hQRw2UKnCJBQfY"
"BARBELL & CHALK","5","6","abc, Perikleous 12","Strovolos",,"CY","https://www.instagram.com/barbellandchalk?igsh=MXdhbzk5cnRmN2h5eA==",,"Gym","https://www.google.com/maps/search/?api=1&query=BARBELL%20%26%20CHALK&query_place_id=ChIJ9_OEFEob3hQRzrMBTm6rBxo"
"EnSomati MMA Academy","5","5","Fedras 8","Nicosia",,"CY","https://www.instagram.com/ensomati.mma?igsh=aDV6bXZ1b2RnaXQ1&utm_source=qr","+357 96 855588","Martial arts school","https://www.google.com/maps/search/?api=1&query=EnSomati%20MMA%20Academy&query_place_id=ChIJZY65IwAX3hQR6v0KEN5c6PI"
"Oxygen Gym","4.2","47","Skopa 7","Nicosia",,"CY",,"+357 22 768166","Gym","https://www.google.com/maps/search/?api=1&query=Oxygen%20Gym&query_place_id=ChIJ07BqoOIZ3hQR9etvsaqN74Q"
"Momentum Fitness & Wellness","4.8","60","25is Martiou 9A","Egkomi",,"CY","http://momentum-gym.com/","+357 22 270450","Gym","https://www.google.com/maps/search/?api=1&query=Momentum%20Fitness%20%26%20Wellness&query_place_id=ChIJERvrN8kZ3hQRP1oDJA2U778"
"100% Boxing & Fitness Gym","4.5","53","Stasinou 2404","Egkomi",,"CY","http://fb.me/100boxfitgym","+357 99 499722","Gym","https://www.google.com/maps/search/?api=1&query=100%25%20Boxing%20%26%20Fitness%20Gym&query_place_id=ChIJERt2IAUa3hQRTVqvYNSy6JE"
"SCIENCE FIT","5","17","Perikleous 39B","Strovolos",,"CY","https://m.facebook.com/mp.sciencefit/","+357 99 016177","Fitness center","https://www.google.com/maps/search/?api=1&query=SCIENCE%20FIT&query_place_id=ChIJwxFeUtYZ3hQRMm65PHeDyuE"
"New Body Gym","4.2","46","Athinon 48-50","Nicosia",,"CY","http://www.newbodygym.com.cy/","+357 22 494967","Gymnastics center","https://www.google.com/maps/search/?api=1&query=New%20Body%20Gym&query_place_id=ChIJlWAN7IcZ3hQR-EsWJN76YDU"
"ALEXY MUAY THAI GYM","5","9","Pouliou - Kapota 18","Nicosia",,"CY","https://m.facebook.com/ALEXYmuaythai/","+357 96 539444","Muay Thai boxing gym","https://www.google.com/maps/search/?api=1&query=ALEXY%20MUAY%20THAI%20GYM&query_place_id=ChIJj3ZBCTUX3hQRUUS6Gq2_9Cg"
"Maxx Fitness","4.5","64","B17 5a","Aglantzia",,"CY","https://www.maxxfitnesscy.com/","+357 22 448144","Gym","https://www.google.com/maps/search/?api=1&query=Maxx%20Fitness&query_place_id=ChIJfez6xnsX3hQRy6TQwQtrMd4"
"The Gym","4.6","1089","89 Onasagorou Nicosia CY","Nicosia",,"CY",,"+357 22 002001","Bar","https://www.google.com/maps/search/?api=1&query=The%20Gym&query_place_id=ChIJY9ad01oX3hQRkHYkY_NzpmY"
"FITNESS FACTORY","4.6","31","Pindou 4A","Egkomi",,"CY","https://www.fitnessfactory.cy/","+357 99 882728","Gym","https://www.google.com/maps/search/?api=1&query=FITNESS%20FACTORY&query_place_id=ChIJWSzR6Awa3hQRlCvDUWEtXRI"
"JUSTICE Fitness & Dance","5","3","Ilia Venezi 5","Nicosia",,"CY","https://www.instagram.com/justicefitnessanddance?igsh=OTc0N3FjOHdxNWYy","+357 96 816413","Fitness center","https://www.google.com/maps/search/?api=1&query=JUSTICE%20Fitness%20%26%20Dance&query_place_id=ChIJbXP6UQAZ3hQREc6pvhDTY1c"
"STEP BY STEP GYM","5","5","Prigkipos Karolou 4","Egkomi",,"CY","https://stepbystepgym.com.cy/","+357 22 779728","Gym","https://www.google.com/maps/search/?api=1&query=STEP%20BY%20STEP%20GYM&query_place_id=ChIJicOMN9Ab3hQR_DSHOERCFjU"
"FUELHOUSE Boutique Fitness Club","4.9","78","Michali Paridi","Strovolos",,"CY","https://fuelhouse.cy/","+357 22 663000","Gym","https://www.google.com/maps/search/?api=1&query=FUELHOUSE%20Boutique%20Fitness%20Club&query_place_id=ChIJMfOn0vcb3hQRiSxX12HtQ-E"
"REAL FIT","4.7","42","Kantaras 22-26","Nicosia",,"CY","http://www.realfitnicosia.com/","+357 22 264842","Gym","https://www.google.com/maps/search/?api=1&query=REAL%20FIT&query_place_id=ChIJVf0pZIcX3hQR01YGHyZh5Rc"
"SQUAD by x.fit","4.9","51","12 A Arsinois Street","Strovolos",,"CY","https://www.squadfitnessgym.com/","+357 22 261717","Fitness center","https://www.google.com/maps/search/?api=1&query=SQUAD%20by%20x.fit&query_place_id=ChIJZSGaxvoZ3hQRLJR2_HDk1l4"
"Regenesis GYM","4.8","53","Athalassas Ave 38","Nicosia",,"CY","https://regenesisgymcy.com/","+357 70 000380","Gym","https://www.google.com/maps/search/?api=1&query=Regenesis%20GYM&query_place_id=ChIJ6U0T858Z3hQRbsE83VxEtxk"
"Fitensity Training Club","5","11","Denousis","Strovolos",,"CY","https://m.facebook.com/Fitensitytc/","+357 70 088338","Personal trainer","https://www.google.com/maps/search/?api=1&query=Fitensity%20Training%20Club&query_place_id=ChIJbSUz9owZ3hQRadAeXMdB4Gw"
"The Gym- Koutras","5","25",,"Egkomi",,"CY","https://www.facebook.com/The-Gym-Koutras-Fitness-Personal-Training-Center-1405856916318939/","+357 99 618206","Gym","https://www.google.com/maps/search/?api=1&query=The%20Gym-%20Koutras&query_place_id=ChIJa5LOZF0a3hQR8Ygo38O6lU0"
"Komanetsi Fitness Center","4.7","177","October 28th 27","Strovolos",,"CY","https://komanetsi.com/","+357 22 463360","Fitness center","https://www.google.com/maps/search/?api=1&query=Komanetsi%20Fitness%20Center&query_place_id=ChIJBy-qDvQZ3hQRmQM68i0UQEA"
"Absolute Fitness by Yiannos Constantinou","5","1","B17 75","Aglantzia",,"CY","https://m.facebook.com/absoluteyc/","+357 99 660018","Fitness center","https://www.google.com/maps/search/?api=1&query=Absolute%20Fitness%20by%20Yiannos%20Constantinou&query_place_id=ChIJ-cBvhssX3hQROxrbg5tffZ0"
"Destination Fitness","4.7","232","Avenue, Larnacos 85","Aglantzia",,"CY","http://www.destinationfitnesscy.com/","+357 22 027210","Gym","https://www.google.com/maps/search/?api=1&query=Destination%20Fitness&query_place_id=ChIJfXV3IIIX3hQR6jSsArdokiU"
"ΜΟΛΩΝ ΛΑΒΕ GYM","5","390","Kyriakou Matsi 54","Egkomi",,"CY","https://molonlabegym.cy/","+357 22 443444","Gym","https://www.google.com/maps/search/?api=1&query=%CE%9C%CE%9F%CE%9B%CE%A9%CE%9D%20%CE%9B%CE%91%CE%92%CE%95%20GYM&query_place_id=ChIJbcNrnrUb3hQREgPNsSSugC0"
"New Life Health Centre - Nicosia Gym","4.4","165","Stadiou 47","Strovolos",,"CY","http://www.newlife.com.cy/","+357 22 591222","Gym","https://www.google.com/maps/search/?api=1&query=New%20Life%20Health%20Centre%20-%20Nicosia%20Gym&query_place_id=ChIJFUrZThga3hQRI-gaLZGLp7c"
"Curves Aglantzias","4.9","57","B17 147Β","Aglantzia",,"CY","http://facebook.com/Curves116097/","+357 22 448344","Gym","https://www.google.com/maps/search/?api=1&query=Curves%20Aglantzias&query_place_id=ChIJK7Wfs30X3hQRX0qPEPG_XMU"
"Bar","4","6","John Kennedy 14","Nicosia",,"CY","https://m.facebook.com/profile.php?id=100063590616174&name=xhp_nt__fblite__profile__tab_bar","+357 99 498585","Gym","https://www.google.com/maps/search/?api=1&query=Bar&query_place_id=ChIJdZpq3YoZ3hQRikkIP7fZNmw"
"Pilates Concept","5","2","Kyriakou Matsi 46","Nicosia",,"CY","https://www.facebook.com/pilatesconceptkl/","+357 99 022957","Gym","https://www.google.com/maps/search/?api=1&query=Pilates%20Concept&query_place_id=ChIJQVqrkPkZ3hQRVx5mKbmliao"
"Underground Force /Gym","5","11","Antoni Samaraki 8","Aglantzia",,"CY","https://www.instagram.com/underground_force/","+357 97 606464","Gym","https://www.google.com/maps/search/?api=1&query=Underground%20Force%20%2FGym&query_place_id=ChIJicl8xc0X3hQRUiuqUfvmpF4"
"Gabriel Fitness & Boxing Gym","5","71","Fokidos 1b","Egkomi",,"CY","https://www.facebook.com/gym.freaks.training/","+357 96 857186","Gym","https://www.google.com/maps/search/?api=1&query=Gabriel%20Fitness%20%26%20Boxing%20Gym&query_place_id=ChIJv6ze3nkb3hQR28jKcWS6aiI"
"SWEAT Fitness Studio","4.2","5","Kantaras 45","Nicosia",,"CY","https://m.facebook.com/sweatcy/","+357 97 689332","Fitness center","https://www.google.com/maps/search/?api=1&query=SWEAT%20Fitness%20Studio&query_place_id=ChIJMdf6gtEX3hQRnnO54YWFs3M"
"FORTIUS BOXING ACADEMY","5","19","Afroditis 4","Aglantzia",,"CY","https://www.facebook.com/fortiusboxing/photos/?ref=page_internal","+357 96 774232","Boxing gym","https://www.google.com/maps/search/?api=1&query=FORTIUS%20BOXING%20ACADEMY&query_place_id=ChIJv_eFwNgX3hQRVbL1mUmC3_k"
"Class One Fitness","4.8","37","59P7+HR4, Şht. Mehmet Vural Ahmet","Nicosia",,"CY","https://www.instagram.com/classone.fitness?igsh=cTBrdXpodWVsNzV6","+90 539 106 56 29","Gym","https://www.google.com/maps/search/?api=1&query=Class%20One%20Fitness&query_place_id=ChIJA-YV8YgX3hQRZ0ujNGXhZqA"
"Body Explosion Fitness Place","5","10","Prevezis 13","Nicosia",,"CY","https://www.facebook.com/bodyexplosion.fitnessplace","+357 99 556575","Fitness center","https://www.google.com/maps/search/?api=1&query=Body%20Explosion%20Fitness%20Place&query_place_id=ChIJ1xXp-5AX3hQRnkXw0j31dnk"
"Φόρμα fitness studio","5","28","Deligiorgi 5","Nicosia",,"CY","https://www.instagram.com/forma_fitness.studio?igsh=eXAwbzRwN2VsOTFk","+357 96 223331","Fitness center","https://www.google.com/maps/search/?api=1&query=%CE%A6%CF%8C%CF%81%CE%BC%CE%B1%20fitness%20studio&query_place_id=ChIJoeIy7pMb3hQRYT3cxQhUAb8"
"Mr. Cyprus Gym","4.9","19","59JG+4CW, Dimitras","Nicosia",,"CY","https://www.facebook.com/pages/category/Gym-Physical-Fitness-Center/MrCyprus-Gym-1219300891485594/","+357 22 433332","Gym","https://www.google.com/maps/search/?api=1&query=Mr.%20Cyprus%20Gym&query_place_id=ChIJcWECRZQX3hQRTZCs5CXLBWM"
"INFINITY fitness hall","5","10","Dimokratias 13","Agios Dometios",,"CY","https://m.facebook.com/infinityfitnesshall/","+357 22 100561","Gym","https://www.google.com/maps/search/?api=1&query=INFINITY%20fitness%20hall&query_place_id=ChIJfzSm7YYb3hQRfsS54131MaQ"
"EUROGYM","3.9","57","56-60 Κυριάκου Μάτση Nicosia","Egkomi",,"CY","https://www.instagram.com/eurogym_official_page?igsh=MW95cDl4YjA0NnNq","+357 70 006080","Gym","https://www.google.com/maps/search/?api=1&query=EUROGYM&query_place_id=ChIJh7VWW3Ma3hQR5XT_0j3pzbo"
"AT4FITNESS GYM","4.9","27","Aglantzias 79","Aglantzia",,"CY","https://m.facebook.com/At4FITNESS/","+357 96 488763","Gym","https://www.google.com/maps/search/?api=1&query=AT4FITNESS%20GYM&query_place_id=ChIJlY3k8LwZ3hQRRE0WC-2BtAU"
"Home Gym","5","13","Costa Anaxagora 24","Strovolos",,"CY","https://m.facebook.com/askhomegym",,"Gym","https://www.google.com/maps/search/?api=1&query=Home%20Gym&query_place_id=ChIJE4dqoXcZ3hQREcRrpoPHKYU"
"PLYO Fitness Studio","4.5","4","Dimitsanis 15","Nicosia",,"CY","https://m.facebook.com/profile.php?id=100087678840546&name=xhp_nt__fblite__profile__tab_bar","+357 22 755511","Gym","https://www.google.com/maps/search/?api=1&query=PLYO%20Fitness%20Studio&query_place_id=ChIJBb_n-GgX3hQRlLrHNivxKYM"
"19 Fitness","5","9","Georgiou Griva Digeni 19","Nicosia",,"CY","https://m.facebook.com/19FitnessNicosia/","+357 22 006618","Gym","https://www.google.com/maps/search/?api=1&query=19%20Fitness&query_place_id=ChIJj_BBdf0Z3hQROZOqnfsr7-M"
"Old Town Fitness Studio","5","64","Dimonaktos 13Β","Nicosia",,"CY","https://www.instagram.com/old_town_fitness_studio?igsh=aGYwMGsybHJvZmhu&utm_source=qr",,"Gym","https://www.google.com/maps/search/?api=1&query=Old%20Town%20Fitness%20Studio&query_place_id=ChIJj2T0uVIX3hQR-m_qpF4gRAY"
"MOTUS Boutique Gym","4.9","106","Simonidou 14a","Nicosia",,"CY","https://motusboutiquegym.com.cy/","+357 22 782220","Fitness center","https://www.google.com/maps/search/?api=1&query=MOTUS%20Boutique%20Gym&query_place_id=ChIJ_XFCscgX3hQRmAH6KbsHtzk"
"BE Different Gym & Fitness Club","5","14","Platonos 10","Nicosia",,"CY","https://m.facebook.com/profile.php?id=100090525754964&name=xhp_nt__fblite__profile__tab_bar","+357 22 264480","Gym","https://www.google.com/maps/search/?api=1&query=BE%20Different%20Gym%20%26%20Fitness%20Club&query_place_id=ChIJ5TwcRocX3hQRr8HkNWLJs9c"
"Olympus Gym","4.4","24","Tyrtaiou 8","Nicosia",,"CY","http://www.olympusgym.com.cy/","+357 22 761661","Gym","https://www.google.com/maps/search/?api=1&query=Olympus%20Gym&query_place_id=ChIJ8eBkz_wZ3hQRfndKWrjigB4"
"iBody Fitness and Dance Studio Ltd","4.7","14","Protagorou 8","Nicosia",,"CY","http://www.facebook.com/ibodystudio","+357 22 270024","Fitness center","https://www.google.com/maps/search/?api=1&query=iBody%20Fitness%20and%20Dance%20Studio%20Ltd&query_place_id=ChIJNSN5C2gX3hQRa0eLn27-zRU"
"PRO.FIT Center Nicosia","3.7","57","Lemesou Avenue 13","Aglantzia",,"CY","https://m.facebook.com/profile.php?id=100076418010905","+357 94 048198","Gym","https://www.google.com/maps/search/?api=1&query=PRO.FIT%20Center%20Nicosia&query_place_id=ChIJb6DarQEZ3hQROAdW18VRk0o"
"Figure8Gym","3.8","29","59HG+6WC, Nemeseos","Nicosia",,"CY","https://m.facebook.com/figura8gym/",,"Gym","https://www.google.com/maps/search/?api=1&query=Figure8Gym&query_place_id=ChIJizwzn1QX3hQR1gfQvegg8Rk"
"Urban Boutique Gym","4.8","23","Prodromou 121","Nicosia",,"CY","https://www.instagram.com/urbanboutiquegym/","+357 22 274636","Gym","https://www.google.com/maps/search/?api=1&query=Urban%20Boutique%20Gym&query_place_id=ChIJ7VvG3iob3hQRq9nK7PhlLnc"
